[{"OBJECT_NAME":"STARLINK-3333","OBJECT_ID":"2022-001C","EPOCH":"2026-03-09T22:48:18.143136","MEAN_MOTION":15.0885751,"ECCENTRICITY":0.00014366,"INCLINATION":53.2186,"RA_OF_ASC_NODE":157.9555,"ARG_OF_PERICENTER":99.8496,"MEAN_ANOMALY":260.2658,"EPHEMERIS_TYPE":0,"CLASSIFICATION_TYPE":"U","NORAD_CAT_ID":50805,"ELEMENT_SET_NO":999,"REV_AT_EPOCH":23058,"BSTAR":-0.00034958927,"MEAN_MOTION_DOT":-5.85e-5,"MEAN_MOTION_DDOT":0},{"OBJECT_NAME":"STARLING 3","OBJECT_ID":"2023-100D","EPOCH":"2026-03-09T22:41:57.048288","MEAN_MOTION":15.11145977,"ECCENTRICITY":0.00066311,"INCLINATION":99.5096,"RA_OF_ASC_NODE":65.6477,"ARG_OF_PERICENTER":76.1122,"MEAN_ANOMALY":284.0839,"EPHEMERIS_TYPE":0,"CLASSIFICATION_TYPE":"U","NORAD_CAT_ID":57389,"ELEMENT_SET_NO":999,"REV_AT_EPOCH":14507,"BSTAR":0.00051487914,"MEAN_MOTION_DOT":8.551e-5,"MEAN_MOTION_DDOT":0}]
